start=new Date('2022-08-24T00:00:00.000Z').valueOf();
sats=[{"SEMIMAJOR_AXIS":"6917.888","MEAN_MOTION_DDOT":"0.0000000000000","BSTAR":"0.00112350000000","SITE":"AFETR","INCLINATION":"53.2165","TIME_SYSTEM":"UTC","PERIAPSIS":"538.790","APOAPSIS":"540.716","REF_FRAME":"TEME","CENTER_NAME":"EARTH","MEAN_ELEMENT_THEORY":"SGP4","ELEMENT_SET_NO":"999","RA_OF_ASC_NODE":"67.0906","OBJECT_ID":"2022-025AL","OBJECT_NAME":"STARLINK-3657","CLASSIFICATION_TYPE":"U","COUNTRY_CODE":"US","MEAN_MOTION":"15.08837366","EPHEMERIS_TYPE":"0","MEAN_MOTION_DOT":"0.00017636","MEAN_ANOMALY":"127.6061","TLE_LINE2":"2 51990  53.2165  67.0906 0001392  79.3056 127.6061 15.08837366 27123","FILE":"3545115","OBJECT_TYPE":"PAYLOAD","DECAY_DATE":null,"REV_AT_EPOCH":"2712","EPOCH":"2022-08-23T22:00:01.999584","NORAD_CAT_ID":"51990","ECCENTRICITY":"0.00013920","PERIOD":"95.438","GP_ID":"210827132","ARG_OF_PERICENTER":"79.3056","RCS_SIZE":"LARGE","LAUNCH_DATE":"2022-03-09","TLE_LINE1":"1 51990U 22025AL  22235.91668981  .00017636  00000-0  11235-2 0  9994"},{"MEAN_MOTION_DOT":"-0.00000689","TLE_LINE2":"2 51991  53.2182  87.1004 0001945  61.2196  15.6582 15.08840246  1301","MEAN_ANOMALY":"15.6582","OBJECT_TYPE":"PAYLOAD","FILE":"3545624","MEAN_MOTION":"15.08840246","EPHEMERIS_TYPE":"0","COUNTRY_CODE":"US","RCS_SIZE":"LARGE","LAUNCH_DATE":"2022-03-09","TLE_LINE1":"1 51991U 22025AM  22235.91668981 -.00000689  00000-0 -25193-4 0  9997","ARG_OF_PERICENTER":"61.2196","GP_ID":"210861929","ECCENTRICITY":"0.00019450","PERIOD":"95.438","DECAY_DATE":null,"EPOCH":"2022-08-23T22:00:01.999584","NORAD_CAT_ID":"51991","REV_AT_EPOCH":"130","TIME_SYSTEM":"UTC","SITE":"AFETR","INCLINATION":"53.2182","SEMIMAJOR_AXIS":"6917.880","MEAN_MOTION_DDOT":"0.0000000000000","BSTAR":"-0.00002519300000","CLASSIFICATION_TYPE":"U","RA_OF_ASC_NODE":"87.1004","OBJECT_NAME":"STARLINK-3652","OBJECT_ID":"2022-025AM","CENTER_NAME":"EARTH","MEAN_ELEMENT_THEORY":"SGP4","ELEMENT_SET_NO":"999","APOAPSIS":"541.090","PERIAPSIS":"538.399","REF_FRAME":"TEME"},{"PERIAPSIS":"538.646","APOAPSIS":"540.951","REF_FRAME":"TEME","ELEMENT_SET_NO":"999","CENTER_NAME":"EARTH","MEAN_ELEMENT_THEORY":"SGP4","RA_OF_ASC_NODE":"67.0992","OBJECT_ID":"2022-025AN","OBJECT_NAME":"STARLINK-3643","CLASSIFICATION_TYPE":"U","MEAN_MOTION_DDOT":"0.0000000000000","BSTAR":"0.00195450000000","SEMIMAJOR_AXIS":"6917.933","INCLINATION":"53.2164","SITE":"AFETR","TIME_SYSTEM":"UTC","REV_AT_EPOCH":"130","EPOCH":"2022-08-23T22:00:01.999584","NORAD_CAT_ID":"51992","DECAY_DATE":null,"PERIOD":"95.439","ECCENTRICITY":"0.00016660","GP_ID":"210862183","ARG_OF_PERICENTER":"61.3827","LAUNCH_DATE":"2022-03-09","TLE_LINE1":"1 51992U 22025AN  22235.91668981  .00030940  00000-0  19545-2 0  9991","RCS_SIZE":"LARGE","COUNTRY_CODE":"US","MEAN_MOTION":"15.08822630","EPHEMERIS_TYPE":"0","FILE":"3545624","OBJECT_TYPE":"PAYLOAD","MEAN_MOTION_DOT":"0.00030940","MEAN_ANOMALY":"205.5469","TLE_LINE2":"2 51992  53.2164  67.0992 0001666  61.3827 205.5469 15.08822630  1308"},{"SITE":"AFETR","INCLINATION":"53.2187","SEMIMAJOR_AXIS":"6917.883","BSTAR":"0.00003208400000","MEAN_MOTION_DDOT":"0.0000000000000","TIME_SYSTEM":"UTC","MEAN_ELEMENT_THEORY":"SGP4","CENTER_NAME":"EARTH","ELEMENT_SET_NO":"999","REF_FRAME":"TEME","APOAPSIS":"540.918","PERIAPSIS":"538.578","CLASSIFICATION_TYPE":"U","OBJECT_NAME":"STARLINK-3648","OBJECT_ID":"2022-025AP","RA_OF_ASC_NODE":"87.1041","COUNTRY_CODE":"US","MEAN_ANOMALY":"64.8710","TLE_LINE2":"2 51993  53.2187  87.1041 0001691  71.9858  64.8710 15.08839139  1308","MEAN_MOTION_DOT":"0.00000223","OBJECT_TYPE":"PAYLOAD","FILE":"3545624","EPHEMERIS_TYPE":"0","MEAN_MOTION":"15.08839139","ECCENTRICITY":"0.00016910","PERIOD":"95.438","DECAY_DATE":null,"REV_AT_EPOCH":"130","EPOCH":"2022-08-23T22:00:01.999584","NORAD_CAT_ID":"51993","RCS_SIZE":"LARGE","TLE_LINE1":"1 51993U 22025AP  22235.91668981  .00000223  00000-0  32084-4 0  9998","LAUNCH_DATE":"2022-03-09","GP_ID":"210862426","ARG_OF_PERICENTER":"71.9858"},{"RCS_SIZE":"LARGE","TLE_LINE1":"1 51994U 22025AQ  22235.91668981  .00030452  00000-0  19245-2 0  9998","LAUNCH_DATE":"2022-03-09","GP_ID":"210861182","ARG_OF_PERICENTER":"65.0826","ECCENTRICITY":"0.00016910","PERIOD":"95.439","DECAY_DATE":null,"EPOCH":"2022-08-23T22:00:01.999584","NORAD_CAT_ID":"51994","REV_AT_EPOCH":"130","TLE_LINE2":"2 51994  53.2163  67.0994 0001691  65.0826 221.8451 15.08814737  1300","MEAN_ANOMALY":"221.8451","MEAN_MOTION_DOT":"0.00030452","FILE":"3545624","OBJECT_TYPE":"PAYLOAD","EPHEMERIS_TYPE":"0","MEAN_MOTION":"15.08814737","COUNTRY_CODE":"US","CLASSIFICATION_TYPE":"U","OBJECT_ID":"2022-025AQ","OBJECT_NAME":"STARLINK-3647","RA_OF_ASC_NODE":"67.0994","MEAN_ELEMENT_THEORY":"SGP4","CENTER_NAME":"EARTH","ELEMENT_SET_NO":"999","REF_FRAME":"TEME","APOAPSIS":"540.992","PERIAPSIS":"538.653","TIME_SYSTEM":"UTC","SITE":"AFETR","INCLINATION":"53.2163","SEMIMAJOR_AXIS":"6917.958","BSTAR":"0.00192450000000","MEAN_MOTION_DDOT":"0.0000000000000"},{"SITE":"AFETR","INCLINATION":"53.2162","SEMIMAJOR_AXIS":"6917.941","MEAN_MOTION_DDOT":"0.0000000000000","BSTAR":"0.00195290000000","TIME_SYSTEM":"UTC","CENTER_NAME":"EARTH","MEAN_ELEMENT_THEORY":"SGP4","ELEMENT_SET_NO":"999","APOAPSIS":"540.760","PERIAPSIS":"538.852","REF_FRAME":"TEME","CLASSIFICATION_TYPE":"U","RA_OF_ASC_NODE":"67.0908","OBJECT_NAME":"STARLINK-3636","OBJECT_ID":"2022-025AR","COUNTRY_CODE":"US","MEAN_MOTION_DOT":"0.00030912","MEAN_ANOMALY":"157.8851","TLE_LINE2":"2 51995  53.2162  67.0908 0001379  69.0244 157.8851 15.08820234 27114","FILE":"3545117","OBJECT_TYPE":"PAYLOAD","MEAN_MOTION":"15.08820234","EPHEMERIS_TYPE":"0","ECCENTRICITY":"0.00013790","PERIOD":"95.439","DECAY_DATE":null,"NORAD_CAT_ID":"51995","EPOCH":"2022-08-23T22:00:01.999584","REV_AT_EPOCH":"2711","RCS_SIZE":"LARGE","LAUNCH_DATE":"2022-03-09","TLE_LINE1":"1 51995U 22025AR  22235.91668981  .00030912  00000-0  19529-2 0  9995","GP_ID":"210827012","ARG_OF_PERICENTER":"69.0244"},{"TIME_SYSTEM":"UTC","INCLINATION":"53.2162","SITE":"AFETR","BSTAR":"0.00187360000000","MEAN_MOTION_DDOT":"0.0000000000000","SEMIMAJOR_AXIS":"6917.946","CLASSIFICATION_TYPE":"U","OBJECT_NAME":"STARLINK-3538","OBJECT_ID":"2022-025AS","RA_OF_ASC_NODE":"67.0991","ELEMENT_SET_NO":"999","MEAN_ELEMENT_THEORY":"SGP4","CENTER_NAME":"EARTH","REF_FRAME":"TEME","APOAPSIS":"540.923","PERIAPSIS":"538.700","OBJECT_TYPE":"PAYLOAD","FILE":"3545624","MEAN_ANOMALY":"227.5020","TLE_LINE2":"2 51996  53.2162  67.0991 0001606  79.3990 227.5020 15.08818378  1304","MEAN_MOTION_DOT":"0.00029639","EPHEMERIS_TYPE":"0","MEAN_MOTION":"15.08818378","COUNTRY_CODE":"US","TLE_LINE1":"1 51996U 22025AS  22235.91668981  .00029639  00000-0  18736-2 0  9999","LAUNCH_DATE":"2022-03-09","RCS_SIZE":"LARGE","GP_ID":"210862683","ARG_OF_PERICENTER":"79.3990","PERIOD":"95.439","ECCENTRICITY":"0.00016060","NORAD_CAT_ID":"51996","EPOCH":"2022-08-23T22:00:01.999584","REV_AT_EPOCH":"130","DECAY_DATE":null},{"APOAPSIS":"541.000","PERIAPSIS":"538.599","REF_FRAME":"TEME","CENTER_NAME":"EARTH","MEAN_ELEMENT_THEORY":"SGP4","ELEMENT_SET_NO":"999","RA_OF_ASC_NODE":"67.0937","OBJECT_NAME":"STARLINK-3589","OBJECT_ID":"2022-025AT","CLASSIFICATION_TYPE":"U","SEMIMAJOR_AXIS":"6917.934","MEAN_MOTION_DDOT":"0.0000000000000","BSTAR":"0.00197160000000","SITE":"AFETR","INCLINATION":"53.2157","TIME_SYSTEM":"UTC","DECAY_DATE":null,"REV_AT_EPOCH":"2711","NORAD_CAT_ID":"51997","EPOCH":"2022-08-23T22:00:01.999584","ECCENTRICITY":"0.00017350","PERIOD":"95.439","GP_ID":"210827252","ARG_OF_PERICENTER":"70.9768","RCS_SIZE":"LARGE","LAUNCH_DATE":"2022-03-09","TLE_LINE1":"1 51997U 22025AT  22235.91668981  .00031214  00000-0  19716-2 0  9991","COUNTRY_CODE":"US","MEAN_MOTION":"15.08822306","EPHEMERIS_TYPE":"0","MEAN_MOTION_DOT":"0.00031214","MEAN_ANOMALY":"175.9442","TLE_LINE2":"2 51997  53.2157  67.0937 0001735  70.9768 175.9442 15.08822306 27119","OBJECT_TYPE":"PAYLOAD","FILE":"3545134"},{"TIME_SYSTEM":"UTC","SITE":"AFETR","INCLINATION":"53.2179","SEMIMAJOR_AXIS":"6917.905","MEAN_MOTION_DDOT":"0.0000000000000","BSTAR":"0.00155700000000","CLASSIFICATION_TYPE":"U","RA_OF_ASC_NODE":"67.0817","OBJECT_ID":"2022-025AU","OBJECT_NAME":"STARLINK-3618","CENTER_NAME":"EARTH","MEAN_ELEMENT_THEORY":"SGP4","ELEMENT_SET_NO":"999","PERIAPSIS":"538.612","APOAPSIS":"540.927","REF_FRAME":"TEME","MEAN_MOTION_DOT":"0.00024573","MEAN_ANOMALY":"34.0876","TLE_LINE2":"2 51998  53.2179  67.0817 0001673  72.8084  34.0876 15.08832108 27122","OBJECT_TYPE":"PAYLOAD","FILE":"3545136","MEAN_MOTION":"15.08832108","EPHEMERIS_TYPE":"0","COUNTRY_CODE":"US","RCS_SIZE":"LARGE","LAUNCH_DATE":"2022-03-09","TLE_LINE1":"1 51998U 22025AU  22235.91668981  .00024573  00000-0  15570-2 0  9996","GP_ID":"210827482","ARG_OF_PERICENTER":"72.8084","ECCENTRICITY":"0.00016730","PERIOD":"95.438","DECAY_DATE":null,"REV_AT_EPOCH":"2712","EPOCH":"2022-08-23T22:00:01.999584","NORAD_CAT_ID":"51998"},{"LAUNCH_DATE":"2022-03-09","TLE_LINE1":"1 51999U 22025AV  22235.91668981 -.00003058  00000-0 -17411-3 0  9991","RCS_SIZE":"LARGE","GP_ID":"210827276","ARG_OF_PERICENTER":"75.4468","PERIOD":"95.437","ECCENTRICITY":"0.00014610","EPOCH":"2022-08-23T22:00:01.999584","REV_AT_EPOCH":"2711","NORAD_CAT_ID":"51999","DECAY_DATE":null,"FILE":"3545136","OBJECT_TYPE":"PAYLOAD","MEAN_MOTION_DOT":"-0.00003058","TLE_LINE2":"2 51999  53.2158  67.0963 0001461  75.4468 246.2626 15.08845319 27119","MEAN_ANOMALY":"246.2626","MEAN_MOTION":"15.08845319","EPHEMERIS_TYPE":"0","COUNTRY_CODE":"US","CLASSIFICATION_TYPE":"U","RA_OF_ASC_NODE":"67.0963","OBJECT_ID":"2022-025AV","OBJECT_NAME":"STARLINK-3667","ELEMENT_SET_NO":"999","CENTER_NAME":"EARTH","MEAN_ELEMENT_THEORY":"SGP4","PERIAPSIS":"538.718","APOAPSIS":"540.740","REF_FRAME":"TEME","TIME_SYSTEM":"UTC","INCLINATION":"53.2158","SITE":"AFETR","MEAN_MOTION_DDOT":"0.0000000000000","BSTAR":"-0.00017411000000","SEMIMAJOR_AXIS":"6917.864"}];
